MALLIGYONG-1            
1 58400U 23179A   24027.16630551  .00007987  00000+0  35032-3 0  9997
2 58400  97.4239 276.0731 0017186  48.7655 311.5059 15.22103818 10126
